MOLNIYA 1-75            
1 19807U 89014A   17344.70021752 -.00000136  00000-0  64999-1 0  9999
2 19807  63.8226 119.4473 6826115 276.6887  15.9798  2.00542080211000
